AII-BRAVO               
1 48270U 21034C   26068.69561509  .00006142  00000+0  46527-3 0  9993
2 48270  97.5758 125.8704 0005372 233.3237 126.7495 15.02621336264679
STARLINK-5743           
1 55597U 23020AE  26068.87853722  .00030642  00000+0  22575-2 0  9999
2 55597  43.0041 351.0025 0004696  34.3722 325.7423 15.02796951169093
