[{"OBJECT_NAME":"AII-BRAVO","OBJECT_ID":"2021-034C","EPOCH":"2026-03-09T16:41:41.144640","MEAN_MOTION":15.02621336,"ECCENTRICITY":0.00053718,"INCLINATION":97.5758,"RA_OF_ASC_NODE":125.8704,"ARG_OF_PERICENTER":233.3237,"MEAN_ANOMALY":126.7495,"EPHEMERIS_TYPE":0,"CLASSIFICATION_TYPE":"U","NORAD_CAT_ID":48270,"ELEMENT_SET_NO":999,"REV_AT_EPOCH":26467,"BSTAR":0.00046526558,"MEAN_MOTION_DOT":6.142e-5,"MEAN_MOTION_DDOT":0},{"OBJECT_NAME":"STARLINK-5743","OBJECT_ID":"2023-020AE","EPOCH":"2026-03-09T21:05:05.615808","MEAN_MOTION":15.02796951,"ECCENTRICITY":0.00046958,"INCLINATION":43.0041,"RA_OF_ASC_NODE":351.0025,"ARG_OF_PERICENTER":34.3722,"MEAN_ANOMALY":325.7423,"EPHEMERIS_TYPE":0,"CLASSIFICATION_TYPE":"U","NORAD_CAT_ID":55597,"ELEMENT_SET_NO":999,"REV_AT_EPOCH":16909,"BSTAR":0.002257492,"MEAN_MOTION_DOT":0.00030642,"MEAN_MOTION_DDOT":0}]
